KUIPER-00071            
1 64818U 25151C   26012.87614012 -.00001859  00000+0 -21457-3 0  9997
2 64818  51.8987 189.8835 0007559  56.3202 303.8480 14.79930087 27006
KUIPER-00072            
1 64819U 25151D   26012.79923516  .00002910  00000+0  39519-3 0  9996
2 64819  51.8960 170.2514 0000793  85.2539 274.8515 14.81572795 27279
KUIPER-00073            
1 64820U 25151E   26012.77512730  .00002393  00000+0  34291-3 0  9995
2 64820  51.8992 190.3273 0013502  73.3558 286.8886 14.79916120 28177
KUIPER-00074            
1 64821U 25151F   26012.85617891  .00002352  00000+0  33727-3 0  9997
2 64821  51.9000 177.4876 0013460  88.6336 271.6169 14.79950232 27177
KUIPER-00075            
1 64822U 25151G   26012.73257194  .00044021  00000+0  11032-2 0  9994
2 64822  51.8721 133.7227 0003440  90.8042 269.3340 15.39614934 27772
KUIPER-00076            
1 64823U 25151H   26012.85338377  .00002286  00000+0  32874-3 0  9996
2 64823  51.8997 179.9923 0005608  88.2097 271.9508 14.79943526 27143
KUIPER-00077            
1 64824U 25151J   26012.84806827  .00002752  00000+0  38991-3 0  9990
2 64824  51.9005 185.0244 0006504  60.2618 299.8991 14.79938631 27072
KUIPER-00078            
1 64825U 25151K   26012.88451336  .00001962  00000+0  28648-3 0  9996
2 64825  51.8990 182.3548 0003646 120.4393 239.6930 14.79923545 27113
